[{"OBJECT_NAME":"ONEWEB-0522","OBJECT_ID":"2022-138AD","EPOCH":"2026-03-09T17:55:10.899552","MEAN_MOTION":13.19725112,"ECCENTRICITY":0.00016062,"INCLINATION":87.924,"RA_OF_ASC_NODE":324.7616,"ARG_OF_PERICENTER":85.5442,"MEAN_ANOMALY":274.5874,"EPHEMERIS_TYPE":0,"CLASSIFICATION_TYPE":"U","NORAD_CAT_ID":54140,"ELEMENT_SET_NO":999,"REV_AT_EPOCH":16369,"BSTAR":-0.00050448879,"MEAN_MOTION_DOT":-1.89e-6,"MEAN_MOTION_DDOT":0},{"OBJECT_NAME":"SL-14 DEB","OBJECT_ID":"1991-056AG","EPOCH":"2026-03-09T08:58:38.570592","MEAN_MOTION":13.21407113,"ECCENTRICITY":0.00056439,"INCLINATION":82.5684,"RA_OF_ASC_NODE":207.0766,"ARG_OF_PERICENTER":309.9446,"MEAN_ANOMALY":50.1183,"EPHEMERIS_TYPE":0,"CLASSIFICATION_TYPE":"U","NORAD_CAT_ID":45294,"ELEMENT_SET_NO":999,"REV_AT_EPOCH":29058,"BSTAR":0.0026423776,"MEAN_MOTION_DOT":1.097e-5,"MEAN_MOTION_DDOT":0}]
